COSMOS 2425 (716)       
1 29670U 06062A   21136.44705730  .00000015  00000-0  00000-0 0  9997
2 29670  64.8519 256.5289 0023796 346.0494  89.1418  2.13115504111997
COSMOS 2433 (720)       
1 32275U 07052A   21138.26101340 -.00000057  00000-0  00000-0 0  9998
2 32275  66.0553  17.7878 0001525 287.7607 274.3133  2.13104202105547
COSMOS 2432 (719)       
1 32276U 07052B   21137.99906231 -.00000057  00000-0  00000-0 0  9990
2 32276  66.0694  17.8904 0010836 337.5013 332.9772  2.13103546105534
COSMOS 2434 (721)       
1 32393U 07065A   21138.15227801  .00000009  00000-0  00000-0 0  9998
2 32393  64.4701 254.9427 0003780  93.0709 273.8938  2.13103097104251
COSMOS 2436 (723)       
1 32395U 07065C   21138.39856772  .00000007  00000-0  00000-0 0  9999
2 32395  64.4794 254.9874 0014720   3.5217 328.5024  2.13103046104187
COSMOS 2456 (730)       
1 36111U 09070A   21138.62298057  .00000099  00000-0  00000+0 0  9999
2 36111  64.2735 134.6061 0006275 303.9541 235.0553  2.13099286 88927
COSMOS 2457 (733)       
1 36112U 09070B   21138.19365819  .00000095  00000-0  00000-0 0  9990
2 36112  64.2553 134.5067 0004512 197.6903 136.1037  2.13101486 88916
COSMOS 2459 (731)       
1 36400U 10007A   21138.40805751 -.00000056  00000-0  00000-0 0  9998
2 36400  65.9542  16.7100 0026373 351.2627 180.6316  2.13108248 87265
COSMOS 2461 (735)       
1 36401U 10007B   21138.40798083 -.00000056  00000-0  00000-0 0  9998
2 36401  65.9498  16.6759 0021648   9.7681 163.0373  2.13103848 87270
COSMOS 2460 (732)       
1 36402U 10007C   21138.37733741 -.00000056  00000-0  00000+0 0  9994
2 36402  65.9360  16.6340 0001998  34.5943  59.1975  2.13106485 87271
COSMOS 2464 (736)       
1 37139U 10041C   21138.79118983  .00000005  00000-0  00000+0 0  9994
2 37139  64.0692 254.1930 0027817  12.3883 345.8701  2.13100740 83339
COSMOS 2471 (701K)      
1 37372U 11009A   21136.40289383 -.00000060  00000-0  00000-0 0  9990
2 37372  65.9360  16.6216 0014402 226.6442 309.0996  2.13051700 79508
COSMOS 2476 (744)       
1 37867U 11064A   21138.10153568  .00000095  00000-0  00000-0 0  9991
2 37867  64.5670 135.8245 0022385 242.1579 158.9240  2.13101871 74261
COSMOS 2477 (745)       
1 37868U 11064B   21138.30618354  .00000097  00000-0  00000-0 0  9995
2 37868  64.5755 135.8780 0019885 243.8011 132.6116  2.13101748 74220
COSMOS 2475 (743)       
1 37869U 11064C   21138.30947984  .00000097  00000-0  00000-0 0  9990
2 37869  64.5817 135.8847 0024330 260.9063  75.6882  2.13102002 74222
COSMOS 2485 (747)       
1 39155U 13019A   21138.56996223  .00000100  00000-0  00000-0 0  9995
2 39155  64.7333 136.1513 0022689 238.0015 206.9097  2.13101915 62742
COSMOS 2492 (754)       
1 39620U 14012A   21138.17786478 -.00000057  00000-0  00000-0 0  9994
2 39620  65.8245  16.3773 0013807 331.9572 206.9939  2.13103206 55688
COSMOS 2500 (755)       
1 40001U 14032A   21138.36806139 -.00000056  00000-0  00000-0 0  9998
2 40001  65.7637  16.2622 0004401 197.5993 346.9847  2.13102580 53902
COSMOS 2501 (702K)      
1 40315U 14075A   21138.13854829  .00000008  00000-0  00000-0 0  9993
2 40315  63.7824 255.0349 0016969 207.7550 326.9795  2.13101440 50305
COSMOS 2514 (751)       
1 41330U 16008A   21138.55582220 -.00000056  00000-0  00000-0 0  9992
2 41330  65.5676  16.0446 0008124 213.6671 298.0364  2.13102914 41077
COSMOS 2516 (753)       
1 41554U 16032A   21138.57206292  .00000006  00000-0  00000+0 0  9994
2 41554  64.0068 255.1845 0013192 213.8938 204.8174  2.13106959 38682
COSMOS 2522 (752)       
1 42939U 17055A   21138.64025962  .00000006  00000-0  00000+0 0  9999
2 42939  64.2394 255.4603 0006620 242.0539  92.6129  2.13101886 28437
COSMOS 2527 (756)       
1 43508U 18053A   21138.40136322  .00000099  00000-0  00000-0 0  9991
2 43508  64.8980 136.0747 0009476 243.7106 299.7568  2.13102576 22720
COSMOS 2529 (757)       
1 43687U 18086A   21138.70395747  .00000006  00000-0  00000+0 0  9993
2 43687  64.4541 255.6699 0008668 269.8917  69.2008  2.13102109 19741
COSMOS 2534 (758)       
1 44299U 19030A   21138.57793792  .00000006  00000-0  00000-0 0  9991
2 44299  64.5280 255.5216 0011550 290.6691  86.5893  2.13101985 15393
COSMOS 2544 (759)       
1 44850U 19088A   21137.56086741  .00000091  00000-0  00000-0 0  9998
2 44850  64.8822 135.9639 0014317 266.7932  35.6643  2.13102435 11145
COSMOS 2545 (760)       
1 45358U 20018A   21138.30274976 -.00000058  00000-0  00000-0 0  9993
2 45358  64.8988  16.9866 0007332 257.9344 103.7132  2.13102775  9111
